{"type":"FeatureCollection","crs":{"type":"name","properties":{"name":"EPSG:4326"}},"features":[{"type":"Feature","id":7,"geometry":{"type":"Polygon","coordinates":[[[-122.367460874254,37.8056146005274],[-122.366842539546,37.8122093175346],[-122.366429051041,37.8166259553052],[-122.364591616021,37.8362476614595],[-122.335503420403,37.8406537145592],[-122.302862532649,37.8329130883138],[-122.29622161747,37.8313367507334],[-122.294694206335,37.8309733903319],[-122.294093343607,37.8308300562587],[-122.293755430656,37.8307493721571],[-122.293422814496,37.8306706542525],[-122.293311332152,37.8306441990023],[-122.292930029293,37.8305559138992],[-122.292848167467,37.8305365687021],[-122.290907930755,37.8300702308563],[-122.290059733122,37.8298660953465],[-122.28879701256,37.829562503306],[-122.288034179242,37.8293790433723],[-122.287522126742,37.829256336985],[-122.285031606684,37.8286574681408],[-122.284892269977,37.8286238658385],[-122.282384393961,37.8280210639292],[-122.282168426624,37.8279694220885],[-122.282102188154,37.8279518586642],[-122.281879296501,37.8278989257822],[-122.281269752422,37.8277522604144],[-122.280937101653,37.8276721355798],[-122.279705847805,37.8273762078929],[-122.278606925019,37.8271125877978],[-122.278354404813,37.8270518593377],[-122.278246437559,37.8270260120662],[-122.27825594222,37.8270615792318],[-122.278439644355,37.8277180466944],[-122.278631145536,37.8284121543503],[-122.278663219103,37.82852291991],[-122.278693590671,37.8286336886192],[-122.278763762877,37.8288887916059],[-122.278567619699,37.8294465766672],[-122.278239386929,37.8302721440018],[-122.277880655525,37.8312732790158],[-122.277512975831,37.8322601237466],[-122.277252821752,37.8329665272858],[-122.277002430366,37.8336460058802],[-122.276742102863,37.8343455700178],[-122.276488361728,37.8350312856383],[-122.276234660418,37.835717675005],[-122.275876828869,37.8366851258262],[-122.276034880633,37.8369217384],[-122.276109068844,37.83690961827],[-122.276811237415,37.8367994757821],[-122.277615629813,37.8371252015516],[-122.278002234998,37.8370706374171],[-122.278612863743,37.836970796817],[-122.27890113443,37.8370763047577],[-122.279357158301,37.8372438624711],[-122.28171556535,37.8367310087369],[-122.282006734098,37.8366675666997],[-122.282125546963,37.8371444084506],[-122.282152323034,37.8372504151317],[-122.284442913238,37.8368690190603],[-122.284822364747,37.8368062825005],[-122.284987226284,37.8373236259025],[-122.285196887186,37.8379776199303],[-122.285745721002,37.8396984454606],[-122.28589743101,37.8401733905731],[-122.286468646081,37.8419597815731],[-122.286908618145,37.8433299608902],[-122.287111177339,37.8439751480795],[-122.287397772633,37.8448717573492],[-122.287571966392,37.8454157326555],[-122.287655404268,37.845716600454],[-122.287885977517,37.8464451360391],[-122.288010127722,37.8468539129302],[-122.288194421056,37.8474574540006],[-122.288513801783,37.8484922871302],[-122.288828033299,37.8495285699805],[-122.288965311282,37.8499776500083],[-122.28900295265,37.8501041020147],[-122.286708451323,37.8505536393718],[-122.286618194242,37.8503290879527],[-122.286130234644,37.8504209461375],[-122.283728350414,37.8508727253984],[-122.283545896985,37.8502725481473],[-122.283256426039,37.8493272354929],[-122.283201905823,37.8491474601211],[-122.282717130071,37.8492275777402],[-122.282536189486,37.8486898634834],[-122.282439648849,37.8482751739326],[-122.282311441783,37.8476254364797],[-122.282248375401,37.8473070887842],[-122.282176757974,37.8471371794062],[-122.281299653776,37.8472513656557],[-122.27952470593,37.8474814038302],[-122.27771696884,37.8477160269192],[-122.276492802361,37.8478752331822],[-122.276363563527,37.8471801870178],[-122.276198432633,37.84628723794],[-122.276128924625,37.8459167576877],[-122.275384845567,37.8460151717034],[-122.273133514498,37.8463133950326],[-122.272746759778,37.846363849269],[-122.272429110161,37.8464063787511],[-122.271253321218,37.846561361453],[-122.271021969797,37.8465923084525],[-122.269423237803,37.8468037534868],[-122.2694906267,37.847160520358],[-122.269661029739,37.8480589113403],[-122.26977996048,37.8486896059807],[-122.26904197278,37.8488283686314],[-122.268848886167,37.8488649255765],[-122.268902524205,37.8490817806001],[-122.269104002593,37.8499041904692],[-122.26934774041,37.8509003545287],[-122.269556907514,37.8517555906845],[-122.267960621655,37.8519292194403],[-122.267048425737,37.8520280505141],[-122.266093063131,37.8521316158136],[-122.261824090927,37.8525950767971],[-122.260169018253,37.8527742925667],[-122.258313514126,37.8529756878326],[-122.257204369057,37.85309587297],[-122.256110735089,37.8532144892212],[-122.255008488922,37.853333875904],[-122.253909672378,37.853453223769],[-122.253419012793,37.853506530603],[-122.253468362064,37.8532482888525],[-122.253397739946,37.8523133606822],[-122.253213514224,37.8514069195352],[-122.25338046449,37.8511428127316],[-122.253615854986,37.8507691858083],[-122.253076363878,37.8508808887967],[-122.252471544236,37.8510862661375],[-122.250914788463,37.8516154800695],[-122.250532270908,37.8516259475944],[-122.250343585905,37.851630816444],[-122.247412710188,37.8517690046128],[-122.247241409795,37.8517770313224],[-122.24612374417,37.8518292836997],[-122.244936865983,37.8518852940593],[-122.244090801058,37.8519252753632],[-122.241902165768,37.8520283229222],[-122.241334693107,37.8520552388822],[-122.236189164021,37.852297247519],[-122.234566225901,37.8523732937013],[-122.234575342767,37.8524658660417],[-122.234586161776,37.8525584133618],[-122.234593130656,37.8526331510482],[-122.234956673372,37.8560331214218],[-122.235057352595,37.8570046521729],[-122.235115059681,37.8575463154244],[-122.236683413086,37.8575026362925],[-122.236948257242,37.8574953186072],[-122.23803537814,37.8574655658416],[-122.238816092156,37.8574437604728],[-122.23956737348,37.8574230813038],[-122.240438089813,37.8573992410339],[-122.241873173264,37.8573595507201],[-122.243843131029,37.8573050330702],[-122.24413567582,37.8572966148926],[-122.244152259955,37.857486575489],[-122.244144616232,37.8576769166228],[-122.244157287655,37.857847718698],[-122.244189181519,37.8580985672472],[-122.244197782458,37.8581698600775],[-122.24428465543,37.8589919080706],[-122.244378369251,37.8598839246093],[-122.244521148201,37.8612414477378],[-122.245278580287,37.8684755401741],[-122.245378846846,37.8694230588865],[-122.24543275301,37.8699455343847],[-122.24572990852,37.8727819772259],[-122.245986604573,37.8752227877598],[-122.246527154105,37.8803718373486],[-122.24661650557,37.8812233883777],[-122.246730508751,37.8823115148231],[-122.246826706683,37.8832329661374],[-122.246855627487,37.8835037932184],[-122.246907314105,37.883933571188],[-122.247015405872,37.8848439104137],[-122.24709478747,37.8854923299447],[-122.247189908511,37.8862929861883],[-122.243843434114,37.8839960562768],[-122.242534868211,37.8830986460642],[-122.240156127711,37.8837792064237],[-122.239402198629,37.8839949440658],[-122.239074015428,37.8838912767884],[-122.2373003753,37.8833323523265],[-122.236057424922,37.8829406601379],[-122.231935981524,37.8816408703676],[-122.228415134726,37.880084946946],[-122.223483428729,37.8779060763219],[-122.221672580596,37.875434329333],[-122.220022863509,37.873180630902],[-122.217783589544,37.8723974499719],[-122.216504345214,37.8690018571726],[-122.216968834793,37.8687849613986],[-122.21785485694,37.8683669553269],[-122.217890838869,37.8683506131918],[-122.220220054679,37.8671912167316],[-122.220471002446,37.8668805950629],[-122.221456064092,37.8656562868351],[-122.21994159865,37.8648941900982],[-122.215094140672,37.8597108493349],[-122.214389015476,37.8589568330882],[-122.214076448442,37.8586235141113],[-122.213833104221,37.8583626787929],[-122.213408618182,37.8579080579614],[-122.212192060503,37.856607962618],[-122.2117640706,37.8561506641631],[-122.210911602132,37.8552387344686],[-122.211043976679,37.8549710510663],[-122.211315323064,37.8544191620259],[-122.211219125618,37.8543038194979],[-122.209580710626,37.8523560574115],[-122.205103728128,37.8516208568943],[-122.20360158127,37.8513740417124],[-122.2013006348,37.8477890767646],[-122.201227032353,37.8476754706647],[-122.200956669586,37.8475928500699],[-122.200433463623,37.8474342175242],[-122.199699347973,37.8469922677792],[-122.199617378524,37.8469666492224],[-122.19925990832,37.8467850130808],[-122.198617800964,37.8465017393021],[-122.19844348587,37.8464520675848],[-122.198174186495,37.8461874340267],[-122.197720548282,37.8458156002265],[-122.197549337177,37.8456745268486],[-122.19677095378,37.8450361287376],[-122.196560490052,37.8448448326953],[-122.195129555035,37.8435393894499],[-122.195033013477,37.8430271366873],[-122.195312237581,37.8427422852858],[-122.195593201725,37.8424566881278],[-122.194287259068,37.8413115164346],[-122.194020444856,37.841078452408],[-122.191979123377,37.840492462724],[-122.189273047501,37.8380131261021],[-122.189174007941,37.8379225357615],[-122.186602466888,37.8375445539701],[-122.185923084246,37.8374444115674],[-122.18536488326,37.8373418368474],[-122.185357401243,37.8373172146919],[-122.185250635766,37.8369623626436],[-122.185210423462,37.8368695112133],[-122.185049529556,37.8364948432888],[-122.184935377703,37.8362719095861],[-122.184748802021,37.8359106363003],[-122.184674566751,37.8357675073494],[-122.184042333189,37.8345397888025],[-122.1841347691,37.8344148692285],[-122.184428389507,37.8336951556685],[-122.185396068486,37.831319115749],[-122.18643510762,37.8306368309173],[-122.186589979225,37.8302136603585],[-122.186692619639,37.8289390620868],[-122.186399101981,37.8288986377516],[-122.186385485855,37.8274615757396],[-122.186584475108,37.8273035611949],[-122.18566890178,37.825566934965],[-122.185988919402,37.8248688222966],[-122.186261117011,37.8242736837317],[-122.186686663319,37.8233440054491],[-122.186925879473,37.822822151306],[-122.185787131358,37.8208628017412],[-122.185553252681,37.8207803232238],[-122.182607083855,37.8197332906815],[-122.181807417803,37.8196664118366],[-122.176786461365,37.8155174973651],[-122.175875317655,37.8132719082374],[-122.175704850962,37.8128520228471],[-122.174733366237,37.8104582772899],[-122.174873383866,37.8101424837075],[-122.175774212246,37.8081018782248],[-122.177102945167,37.8073818905194],[-122.17749453322,37.8071689479083],[-122.178398787648,37.8062029649567],[-122.178953140639,37.8056106882941],[-122.178705753854,37.8052331018807],[-122.178241338993,37.8045221160027],[-122.177075655167,37.8054066704416],[-122.175452756845,37.8040597785701],[-122.176301787128,37.8031014584621],[-122.17235484418,37.8009284960235],[-122.17066062132,37.8000962150863],[-122.168877240623,37.7992205290326],[-122.168824913479,37.7995886287185],[-122.168815996543,37.8001154695388],[-122.168885913156,37.8005299249293],[-122.168754766153,37.8010110846946],[-122.168900262648,37.8011683362518],[-122.169259742863,37.8010678198152],[-122.169541511976,37.8011283654408],[-122.169834941134,37.8015547768406],[-122.170115924865,37.801657207492],[-122.170382952289,37.8017543898004],[-122.170472954549,37.8022166229355],[-122.17080735569,37.8027708450401],[-122.17080641278,37.8028814306508],[-122.1707934645,37.8047672599125],[-122.170193844685,37.8049673304926],[-122.169797491413,37.8052764650332],[-122.169498194723,37.8053603573103],[-122.169224576581,37.8054322296292],[-122.1687756615,37.8054825277336],[-122.167940909765,37.8059255538725],[-122.167234848738,37.8058558819503],[-122.166850603749,37.8057816805125],[-122.165119437271,37.8052313802064],[-122.165126867068,37.8047141696584],[-122.165517205285,37.8045205008729],[-122.164683156494,37.8034521170089],[-122.1641748138,37.8030129525613],[-122.163435194522,37.8023730951858],[-122.162209137379,37.8013411172591],[-122.162261674338,37.8010581411243],[-122.162729812122,37.8007857996497],[-122.16289227837,37.8001565734633],[-122.161747165565,37.8001102056332],[-122.16010856236,37.8001332836005],[-122.158838050777,37.7980368588876],[-122.159716162486,37.7975232162777],[-122.159096018136,37.797187918004],[-122.158123178791,37.7970278671609],[-122.158334719789,37.7964247339315],[-122.153862701361,37.7965905265331],[-122.152727957329,37.7935087760037],[-122.14951636576,37.7943894475806],[-122.144341684274,37.7904075052835],[-122.144072071472,37.7905025979895],[-122.143997166588,37.7905592658412],[-122.142572675298,37.7899233141778],[-122.144038042449,37.7882624037957],[-122.139164294839,37.782043632313],[-122.133944872032,37.7772234411383],[-122.131970798383,37.7755003986824],[-122.131675844823,37.7749124914199],[-122.13044005276,37.7724493246132],[-122.129999242395,37.7717577411697],[-122.129692796046,37.7712751145716],[-122.129628609357,37.7711881113145],[-122.129566136145,37.7711003867928],[-122.129503648278,37.7710119873983],[-122.129444602506,37.770922842849],[-122.129258147289,37.7706260159319],[-122.129154202227,37.7704619544762],[-122.129017218023,37.7702118539979],[-122.128585391514,37.7695331920441],[-122.128443841608,37.7693112807768],[-122.124838919571,37.7636450094251],[-122.124815355157,37.7635965736311],[-122.124791834852,37.7635488572705],[-122.124766600394,37.763501817075],[-122.124739609675,37.7634548235838],[-122.124604844411,37.7632245562416],[-122.12445051613,37.7629719444095],[-122.12432858748,37.7627751620032],[-122.123904963964,37.7620723386274],[-122.123874486989,37.7620239978821],[-122.123869136525,37.7620165111098],[-122.123840567973,37.7619763795917],[-122.123804979896,37.7619302018761],[-122.12376939088,37.7618839791601],[-122.123730318896,37.7618391995031],[-122.123689590458,37.7617951401964],[-122.123645391662,37.7617518037231],[-122.123613516459,37.76171858064],[-122.123042015866,37.7608200034107],[-122.122513579598,37.7599888300253],[-122.121807749442,37.7588792548187],[-122.120589684013,37.7569636524128],[-122.119823054818,37.75575877532],[-122.118861211681,37.7542468424216],[-122.118818209779,37.7541787586472],[-122.118762648728,37.7540909560738],[-122.118646082313,37.7538995846001],[-122.11676452417,37.750818140634],[-122.116716624163,37.7505898904319],[-122.116575395539,37.7499170540539],[-122.114724777696,37.7410878947245],[-122.115384881222,37.7400271728207],[-122.115084574265,37.7380670214452],[-122.114727439317,37.7373896706637],[-122.114710740694,37.737098415084],[-122.11532095849,37.7356551978191],[-122.116094825439,37.7348202208165],[-122.117045142013,37.734623840176],[-122.118684324574,37.7332653719455],[-122.120882839422,37.7327400464774],[-122.120883538548,37.7327383267424],[-122.121212662876,37.7319248680375],[-122.122091872508,37.7309301017063],[-122.122114265221,37.7297376835273],[-122.122592091785,37.7291302447027],[-122.124135371314,37.728615250945],[-122.12546853135,37.7297220340464],[-122.126695814548,37.7300178674398],[-122.127300283937,37.7299841383298],[-122.128181085748,37.7299345268371],[-122.129793739341,37.7300608978692],[-122.130962222006,37.7301975366791],[-122.13150826601,37.7304951881672],[-122.13262968483,37.731795704773],[-122.132006550405,37.7320831549957],[-122.131417473033,37.7323463911056],[-122.130840169022,37.7328313043451],[-122.130697058683,37.7334818706665],[-122.13098015462,37.7337735780073],[-122.131530445531,37.7336323899577],[-122.132337033179,37.7337454945147],[-122.133172653084,37.734077266628],[-122.134016390396,37.7342276475183],[-122.134438140053,37.7342980107736],[-122.134884347741,37.7343776638473],[-122.135196820963,37.7343540888544],[-122.135734655151,37.7337269069713],[-122.136024747318,37.7332363496867],[-122.136422019126,37.7327446405673],[-122.1367227096,37.7322635648579],[-122.137027824719,37.7319063656909],[-122.13793051108,37.7314361373037],[-122.138478621391,37.7310418934185],[-122.138843643864,37.7315185313404],[-122.138688186429,37.7316058397227],[-122.138645495185,37.7316304652069],[-122.138548132734,37.7316850581068],[-122.138951340844,37.7322473458406],[-122.139049953262,37.7325628643519],[-122.139089231628,37.7326969226139],[-122.139152122659,37.7328841837119],[-122.139171456964,37.7332880662627],[-122.139482334437,37.7337420988208],[-122.139519895173,37.7337982352383],[-122.13965095001,37.7343306448827],[-122.139852581805,37.7342979791697],[-122.14014033418,37.7342507033691],[-122.140419457274,37.7342052796262],[-122.140459450731,37.7344498779297],[-122.14059915973,37.7352956585789],[-122.140834948545,37.7358705767386],[-122.140958391976,37.7360576911746],[-122.141275131201,37.7365387744184],[-122.141412899761,37.7367483479724],[-122.14197722298,37.7375562813273],[-122.142002214479,37.7375909455737],[-122.142159416374,37.7378181137435],[-122.14227369619,37.7379813228209],[-122.142282593455,37.737992877151],[-122.142755887256,37.7386709136684],[-122.144067447519,37.7400304850841],[-122.145753616715,37.7422943260515],[-122.146196025248,37.7421229846061],[-122.146475546875,37.7420150768917],[-122.147002190699,37.7418205712821],[-122.1470278969,37.7418106037952],[-122.147407014909,37.7416706995134],[-122.147676804919,37.741357912676],[-122.147799872313,37.7412150841196],[-122.148839906246,37.7409320464698],[-122.148867428533,37.7409247758575],[-122.151196754286,37.7402906224118],[-122.153446889715,37.7396750173135],[-122.155163875243,37.7391956583953],[-122.157114648002,37.7386511519168],[-122.158615034905,37.7382317621497],[-122.160565736292,37.7376875362732],[-122.161280698978,37.7374875889538],[-122.164339167456,37.7360631380866],[-122.164501763547,37.7359880482321],[-122.164539439771,37.7359700096567],[-122.165601423135,37.7374434232752],[-122.165903017262,37.7378607967584],[-122.171892671303,37.7350518109542],[-122.170035265375,37.7322757396109],[-122.170213263353,37.7321932227574],[-122.170500766782,37.7320603917832],[-122.17086017674,37.7318935753088],[-122.171276955509,37.7318186511945],[-122.174192738053,37.7312927918635],[-122.175368159169,37.7318868942558],[-122.171391590589,37.7284576916602],[-122.171087131932,37.7282213090487],[-122.170765854446,37.7279285497308],[-122.171814495433,37.7281169324741],[-122.172321219287,37.7278123799058],[-122.172490831188,37.7275126337242],[-122.172722014563,37.7272587042796],[-122.17295094371,37.7269814720103],[-122.173302619742,37.7267807571462],[-122.17405960962,37.7267648727204],[-122.174562762689,37.7267628524971],[-122.175316084796,37.7260475888352],[-122.175656703205,37.7254322708423],[-122.175950135534,37.7253340393643],[-122.177509327434,37.7253901320273],[-122.178397159028,37.7254245155793],[-122.179497483255,37.7252992957249],[-122.179749437556,37.7255082557748],[-122.180297695929,37.7258200757394],[-122.180673159379,37.7258305163147],[-122.181083824109,37.7257151407551],[-122.181648668151,37.7254612470061],[-122.182773639306,37.7255076486617],[-122.183036645709,37.7255148950507],[-122.183273658345,37.7255214546683],[-122.183567827772,37.7255299647517],[-122.184164739779,37.7255465001311],[-122.184435732545,37.7256023682107],[-122.186146592598,37.7269324150955],[-122.186775186846,37.7276578545114],[-122.187200816492,37.7278996401631],[-122.187806069397,37.7280530291439],[-122.188475911801,37.7284630005034],[-122.190602622645,37.729062216536],[-122.191229483158,37.7281910611337],[-122.191323362083,37.7280599452507],[-122.191615481923,37.7282081788614],[-122.192232319727,37.7273505727501],[-122.193142677222,37.7277666937769],[-122.196202579416,37.7255386012621],[-122.19632020777,37.7255399903799],[-122.19690059768,37.7261963604103],[-122.198118923111,37.725862586782],[-122.197261965195,37.7244541436891],[-122.196769732232,37.723645788011],[-122.19692674051,37.7233272848377],[-122.195386295852,37.7221968492512],[-122.191211570955,37.7187409360936],[-122.190565017568,37.7181349250147],[-122.194015376824,37.7171991646151],[-122.194316731157,37.7179045407296],[-122.195379882695,37.7175936142496],[-122.195215720643,37.7160828354854],[-122.197316217396,37.7160779702272],[-122.2030502895,37.7115978973852],[-122.206424300025,37.7108946402772],[-122.210541541891,37.7100369764878],[-122.204187068211,37.6981391899524],[-122.201995724677,37.6896240933347],[-122.196858038174,37.6810100489452],[-122.19569704736,37.6816272874234],[-122.182062037866,37.671525032952],[-122.17527195525,37.6707727199816],[-122.219945476896,37.632752729022],[-122.281282940393,37.7081035389875],[-122.2526802252,37.7082847129269],[-122.249109460996,37.7117710417439],[-122.263665949975,37.7208029804929],[-122.253339044286,37.7288151553909],[-122.250641499448,37.7308714367073],[-122.244975601334,37.7254570348988],[-122.243921782967,37.7249812833118],[-122.239633477128,37.7220217995581],[-122.239537005215,37.7219631435493],[-122.233003225644,37.7179697361419],[-122.225033828982,37.7262839283184],[-122.224434494458,37.7269086724569],[-122.222608223952,37.7266723863305],[-122.222847502352,37.7369948896254],[-122.223292028468,37.741920997838],[-122.223447927345,37.7453611547288],[-122.223465356617,37.7457399673992],[-122.223474983794,37.7457824002569],[-122.223502524622,37.7458506733615],[-122.223414355681,37.7471196315702],[-122.223290054612,37.7519785107996],[-122.223518880261,37.7543868512484],[-122.223720718933,37.7565243473579],[-122.224461304588,37.760409175801],[-122.224625299344,37.7623309344275],[-122.225012495343,37.7637330081484],[-122.225255737415,37.7643000955551],[-122.225511859948,37.7648992615845],[-122.226064153658,37.7657358280727],[-122.227092350556,37.766800272153],[-122.227508021105,37.7671176229808],[-122.2282372248,37.7676748137892],[-122.229317265594,37.7683628776268],[-122.230322864552,37.7689002268756],[-122.230513835181,37.769002462261],[-122.23230524361,37.7697741118357],[-122.23481516681,37.7708633977937],[-122.236628385692,37.7716037441726],[-122.237262450038,37.7718601489772],[-122.239597042528,37.7731393818471],[-122.240798805373,37.7739196042539],[-122.242901570412,37.7753436430739],[-122.243928566113,37.7762671898684],[-122.244654260908,37.7769603122971],[-122.245039730388,37.7782682909181],[-122.245226877035,37.7790902378647],[-122.245435121892,37.7799990894567],[-122.245757378633,37.7811205154953],[-122.246076818894,37.7821952908594],[-122.246753740282,37.7833114610729],[-122.247903527497,37.7843739043667],[-122.248747006039,37.7850659537182],[-122.249885156463,37.7857055601839],[-122.250661004452,37.7860229757356],[-122.251911956783,37.7863793218127],[-122.253273889809,37.7864531582736],[-122.254219085992,37.7863924305154],[-122.255217515213,37.7860960277202],[-122.255976707554,37.7857090764988],[-122.257677740341,37.785120642412],[-122.258971950519,37.784819775034],[-122.260152365108,37.7847554899512],[-122.261872249573,37.7849639346839],[-122.265396574792,37.7864604550806],[-122.267323848872,37.7872377606975],[-122.269099165683,37.7879534772618],[-122.271974388628,37.7895062107401],[-122.274440713533,37.7912524935357],[-122.27471564595,37.7913877556787],[-122.275983646993,37.7920141564255],[-122.277852397325,37.792937087272],[-122.280232046146,37.7935116643124],[-122.282305705825,37.7936678039041],[-122.283888610098,37.7937104965693],[-122.286744474943,37.7937881164108],[-122.288739611573,37.7936287743054],[-122.28963614455,37.7935567783038],[-122.291990989016,37.793098696897],[-122.294282430636,37.792454045546],[-122.296342530752,37.792047075167],[-122.303677283472,37.7921225733904],[-122.303692956922,37.7921257764663],[-122.304032010065,37.7921912913066],[-122.304805798956,37.7923401604383],[-122.309620883428,37.7933458805976],[-122.33062088666,37.7983718842527],[-122.367460874254,37.8056146005274]],[[-122.249866611047,37.823181867579],[-122.250214016901,37.822861509432],[-122.250138268078,37.8228070089627],[-122.250060833845,37.8227532085017],[-122.249985085775,37.8226987304268],[-122.249909381553,37.8226449042043],[-122.249831919828,37.8225911265059],[-122.249754486572,37.8225373483354],[-122.249673451507,37.8224787856638],[-122.249590703755,37.822420968395],[-122.249507984489,37.8223631506469],[-122.249426982678,37.8223059824244],[-122.24934423425,37.822248119993],[-122.249261515368,37.8221903020702],[-122.249043193359,37.8220369722003],[-122.24889884117,37.8219361219459],[-122.24886020775,37.8219133379009],[-122.248823284253,37.8218884808358],[-122.248788029335,37.8218622039155],[-122.248754517729,37.8218352710926],[-122.248722657214,37.8218061761194],[-122.248692511653,37.8217764256667],[-122.248664091384,37.8217452545236],[-122.24863735665,37.8217133833363],[-122.24861231938,37.8216801143752],[-122.248590753589,37.821646096397],[-122.248570901155,37.8216113554641],[-122.248552734248,37.8215759144917],[-122.248407230665,37.8212779879943],[-122.24839223255,37.8212301465761],[-122.2483688726,37.8211934099379],[-122.248340388053,37.8211594944593],[-122.248313879896,37.8211372280845],[-122.248238001,37.8210758653215],[-122.24815866669,37.8210159263245],[-122.248079331979,37.8209559647796],[-122.247998301021,37.8208974459275],[-122.247927854463,37.8208463082679],[-122.247857423892,37.8207958453825],[-122.247786948641,37.8207446855641],[-122.247711262046,37.820691567211],[-122.247619769185,37.8206343387403],[-122.245793020183,37.8195903505508],[-122.24566007217,37.8195325759743],[-122.245506125538,37.8194648061827],[-122.245355703666,37.8193997517539],[-122.245203503165,37.8193326307899],[-122.244632368431,37.8191206522973],[-122.244285880796,37.8189636963925],[-122.244163390267,37.8189078356788],[-122.243673831841,37.8188512359187],[-122.243326617293,37.8187368612489],[-122.242542949467,37.818541762168],[-122.242398425854,37.818505441599],[-122.24120390103,37.8182140415208],[-122.240642803486,37.8180602877602],[-122.240543478685,37.8180329061949],[-122.240000544734,37.8179145466171],[-122.239294157856,37.8178391428806],[-122.238943673017,37.8177323867557],[-122.237585645036,37.8174056027887],[-122.236293770159,37.8170943233546],[-122.235712255653,37.8169545504513],[-122.235167559788,37.8168341471079],[-122.234951753547,37.8167865126375],[-122.233926085481,37.8165303362095],[-122.233311412462,37.8163780105261],[-122.232329289089,37.8161349290116],[-122.232205674659,37.8161044544635],[-122.232108085752,37.8160770628798],[-122.231670664362,37.815953695631],[-122.23147599531,37.8159194705812],[-122.231178712896,37.8158661622308],[-122.229107710828,37.8154007373759],[-122.228551221391,37.815294225179],[-122.228438099724,37.8152684083138],[-122.22636517801,37.8147933331711],[-122.225218393943,37.8145381793232],[-122.224343089434,37.8143429507122],[-122.223979290288,37.8142596569749],[-122.222650728146,37.8139281767875],[-122.221215919472,37.8135693851323],[-122.221088683463,37.8135327864456],[-122.220607706011,37.8133949155386],[-122.22042821724,37.813343282214],[-122.219491606133,37.8131928128591],[-122.219486429605,37.8131921907716],[-122.217714000464,37.812906255716],[-122.217412677735,37.8128268924071],[-122.215497128731,37.8123376807082],[-122.215118224832,37.8122724683826],[-122.215096659905,37.81231258734],[-122.215073321972,37.8123520795263],[-122.215048222235,37.812390202224],[-122.215021405676,37.8124276748299],[-122.214991113859,37.812464500409],[-122.214960778068,37.8125006515702],[-122.214928665399,37.8125347809097],[-122.214893121927,37.8125689601208],[-122.214857488979,37.812601723019],[-122.214820151966,37.8126331605829],[-122.214781026346,37.8126632965414],[-122.214740137875,37.8126920180104],[-122.214346500287,37.8129628091112],[-122.214298804868,37.8129964672045],[-122.214252870665,37.8130314722797],[-122.214210455608,37.8130677987904],[-122.214168015486,37.8131054982481],[-122.214128793265,37.8131314725843],[-122.214117066417,37.8131481141912],[-122.214112080552,37.8131557471925],[-122.214090249115,37.8131855865801],[-122.214054851099,37.8132273239549],[-122.214022927265,37.8132696633796],[-122.213985846851,37.8133134728272],[-122.213950539909,37.8133579315404],[-122.213918695417,37.8134037125289],[-122.213886910919,37.8134508652349],[-122.213860302362,37.8134986177723],[-122.213835439976,37.8135470649827],[-122.213785821874,37.8136473555795],[-122.213737961583,37.8137476206122],[-122.213691790145,37.8138485586348],[-122.213643945175,37.8139494984476],[-122.21359196628,37.8140237213728],[-122.213540016154,37.8140979663563],[-122.213489795526,37.8141721861901],[-122.213439589854,37.8142470583295],[-122.213287753796,37.814418881029],[-122.213250624613,37.8144606207814],[-122.213215268926,37.8145030098104],[-122.213181631067,37.8145460939293],[-122.213148024314,37.8145905276824],[-122.213117936766,37.8146362829114],[-122.213089522085,37.8146820138361],[-122.213064683326,37.8147290654172],[-122.213039788345,37.8147761403105],[-122.21301838371,37.8148245146045],[-122.212997007402,37.8148728884823],[-122.212980788262,37.8149198148627],[-122.212966270366,37.814966716534],[-122.212951768543,37.8150143155193],[-122.212940782655,37.8150618634434],[-122.212931513593,37.8151100614823],[-122.21292394579,37.8151582348142],[-122.212916134683,37.8152696186908],[-122.212904863255,37.8153810078109],[-122.212893592312,37.8154924194217],[-122.21288229298,37.8156038314408],[-122.212872038463,37.8156843110795],[-122.212870470954,37.8156925919307],[-122.212860026448,37.8157648387385],[-122.212846297032,37.8158446937837],[-122.212829064375,37.815923924648],[-122.212811875608,37.8160038299189],[-122.212789466204,37.8160824383948],[-122.212768425368,37.8161466034656],[-122.212745683201,37.8162107932351],[-122.2127211669,37.8162743112096],[-122.212694905336,37.8163371794705],[-122.212665213293,37.8164001200346],[-122.212635505113,37.8164623632745],[-122.212604022264,37.8165239122206],[-122.212570794656,37.8165848339421],[-122.21253259578,37.8166540409108],[-122.212490894106,37.8167226461725],[-122.212447446088,37.8167905567189],[-122.212400479172,37.816857168236],[-122.212353552797,37.8169230815943],[-122.212303078642,37.8169876738353],[-122.21225088752,37.817051615928],[-122.212207059301,37.8171030607269],[-122.212196934989,37.8171142109658],[-122.212137853354,37.8171782530226],[-122.212078682741,37.8172409012401],[-122.212016049906,37.8173022495803],[-122.211953384805,37.8173622032545],[-122.211887216329,37.817421532689],[-122.211821044461,37.8174794895363],[-122.211751353132,37.8175361248201],[-122.211681657895,37.8175913650186],[-122.211610189473,37.8176459783572],[-122.211536971903,37.8176985468837],[-122.211387048204,37.8178037119063],[-122.211235363797,37.8179075746791],[-122.21108540762,37.8180113671761],[-122.21093367742,37.8181145101582],[-122.210587744952,37.8183536786991],[-122.210545154679,37.8183838408924],[-122.210238446201,37.8185970352793],[-122.209897651227,37.8188340795802],[-122.209723807415,37.8189526400461],[-122.209799573545,37.819010608502],[-122.210566679545,37.8195419551058],[-122.210892228213,37.8195454694241],[-122.21096911335,37.8195017812802],[-122.211076144519,37.8194885729785],[-122.211223321313,37.8194129703637],[-122.211295154616,37.8194503834814],[-122.211502803427,37.8194459982818],[-122.212161429858,37.8198532597479],[-122.212249033854,37.8198979814198],[-122.212326247871,37.819867338533],[-122.212506558399,37.8198029316652],[-122.212594090072,37.8197707437144],[-122.212613066598,37.8197670479662],[-122.212632061994,37.8197653995852],[-122.212651117404,37.8197651229266],[-122.212670176116,37.8197662188137],[-122.212689297628,37.8197700364779],[-122.21270845184,37.8197752712641],[-122.212725935818,37.8197818803932],[-122.212741693371,37.8197898871832],[-122.212757527034,37.8197999630121],[-122.212769888449,37.8198107643025],[-122.212782282047,37.8198229602228],[-122.212791247324,37.8198365560159],[-122.212800228694,37.8198508491237],[-122.212805778956,37.8198651920507],[-122.212837541681,37.8200419083387],[-122.212841618307,37.8200686035302],[-122.212841919356,37.8200816500784],[-122.212847453552,37.8200952956873],[-122.212854629634,37.82010756736],[-122.212863547725,37.8201191161885],[-122.212874192253,37.8201292673507],[-122.212888235726,37.8201379740589],[-122.212902276415,37.8201453307107],[-122.212917942381,37.8201505936145],[-122.212935331475,37.8201530863013],[-122.212943996272,37.8201536580282],[-122.212952661069,37.8201542297544],[-122.212985648982,37.8201578460144],[-122.21302038325,37.8201621569557],[-122.213053406663,37.8201685403763],[-122.213086474532,37.8201756206914],[-122.213119589648,37.8201847479554],[-122.213150978861,37.8201952953737],[-122.213182398713,37.8202071699323],[-122.213212178253,37.8202204859055],[-122.213240060244,37.8202290140911],[-122.213267938929,37.8202361697215],[-122.213297470721,37.8202412086879],[-122.21332695579,37.8202442231827],[-122.213356449806,37.8202451673943],[-122.213385855438,37.8202447402854],[-122.213415213821,37.8202422662111],[-122.213444552269,37.8202376997714],[-122.213473843463,37.8202310863663],[-122.213501357657,37.8202224511217],[-122.213527177096,37.8202165856825],[-122.213554786304,37.8202120668357],[-122.213580685183,37.8202096429737],[-122.213608389415,37.8202092405245],[-122.213636096966,37.8202102106176],[-122.213662150388,37.8202132523785],[-122.21368823601,37.8202176887645],[-122.213714312179,37.8202241729265],[-122.213740492844,37.820232725711],[-122.213764959871,37.8202420009348],[-122.213798296859,37.8202607329649],[-122.213829907444,37.8202808626649],[-122.213861550246,37.8203023869871],[-122.213889837033,37.8203259852039],[-122.213918084265,37.8203503265413],[-122.213942903186,37.8203760677792],[-122.213966051898,37.8204031833751],[-122.213987458625,37.8204310218268],[-122.213998233412,37.8204480339819],[-122.21400731014,37.8204664434058],[-122.214014685481,37.8204848775505],[-122.214018560716,37.8205040601011],[-122.214020762397,37.8205232444671],[-122.214019448387,37.8205425024181],[-122.214016460819,37.8205617621845],[-122.214009941452,37.8205803982205],[-122.214003497705,37.8206010808018],[-122.213997082831,37.8206217854647],[-122.213994070744,37.8206424406848],[-122.213992832346,37.8206637451808],[-122.213993323701,37.8206850245436],[-122.213997286818,37.8207055559127],[-122.214001193744,37.8207261105995],[-122.214008616375,37.8207465917014],[-122.214017740408,37.8207670480812],[-122.214030308895,37.8207868018657],[-122.214044590522,37.8208058107056],[-122.214060570229,37.8208234222731],[-122.214078292993,37.8208403559647],[-122.214097668858,37.8208551729854],[-122.214120501435,37.8208685896783],[-122.214143272939,37.8208805896543],[-122.214167756333,37.8208905621087],[-122.214192191424,37.8208984426123],[-122.214282721494,37.8209211362288],[-122.214301999539,37.8209304867522],[-122.214321280403,37.8209411873268],[-122.214338863723,37.8209533076668],[-122.21435474846,37.820966802785],[-122.214368947905,37.8209810199427],[-122.214383179045,37.820996609235],[-122.2143939379,37.8210129240369],[-122.214402983104,37.8210299612922],[-122.21441028578,37.8210476989192],[-122.21441591593,37.8210654833549],[-122.214419775194,37.8210839685751],[-122.214420203291,37.8211025036618],[-122.214417961336,37.8211540423796],[-122.214416453933,37.8211636949669],[-122.214413663262,37.8211939326553],[-122.214412187029,37.8212049348846],[-122.214410631827,37.8212125180204],[-122.214498827075,37.8212077934719],[-122.214901708766,37.8211854660972],[-122.21517173672,37.8213319408824],[-122.215560892798,37.8216153599403],[-122.215622618241,37.8216632231971],[-122.215780684189,37.8216107907068],[-122.215987383053,37.8220129252736],[-122.216046351153,37.8221672609478],[-122.216135392659,37.8223500061333],[-122.216144438425,37.8223670432507],[-122.216153452471,37.8223827082318],[-122.216164195794,37.8223983255533],[-122.216176654351,37.8224132878758],[-122.216187299141,37.8224234162407],[-122.216190837779,37.8224267850015],[-122.216206735922,37.8224396046333],[-122.216224319905,37.8224517246888],[-122.216241871647,37.8224624501123],[-122.21626114982,37.8224717778187],[-122.216280367913,37.8224797337991],[-122.216409223658,37.8225122189415],[-122.216432218662,37.8225338459135],[-122.216455226432,37.8225547976477],[-122.216479948406,37.8225750493871],[-122.216506367939,37.8225938813219],[-122.216534473321,37.8226120136722],[-122.216562591467,37.8226294707826],[-122.216590649017,37.8226455336695],[-122.216620433001,37.8226601988301],[-122.216741353995,37.822723671263],[-122.216934175222,37.8228259474478],[-122.216958757712,37.8228413857785],[-122.216981657759,37.8228588962367],[-122.217004602305,37.8228771035922],[-122.217024103385,37.822896058613],[-122.217043607338,37.8229163636843],[-122.217061413759,37.8229380885596],[-122.217075788417,37.822959840882],[-122.217090166988,37.8229829882446],[-122.217101132788,37.8230082104242],[-122.217110385441,37.8230341775902],[-122.217117908293,37.8230601699343],[-122.217125475639,37.8230868591795],[-122.217131255425,37.8231135294408],[-122.217135363163,37.8231402690434],[-122.217145775241,37.8232163528743],[-122.217216833307,37.8232187387632],[-122.21773815487,37.823226922482],[-122.219645407547,37.8245402755401],[-122.219833579394,37.8247414643642],[-122.21987088885,37.8247821208602],[-122.220101685976,37.8250280510456],[-122.220406155607,37.8251650337654],[-122.220438041193,37.8251968585523],[-122.220860366524,37.8256391105841],[-122.220952652311,37.8257359613298],[-122.221209074752,37.8258180639761],[-122.22211043068,37.8269056879081],[-122.222163441803,37.8271754732614],[-122.222226925166,37.8272253551244],[-122.222286945327,37.8272739149157],[-122.22236455197,37.8274849719651],[-122.222378557204,37.8275664932883],[-122.222374355078,37.8276091276553],[-122.222368406853,37.8276510899648],[-122.222358998795,37.8276931027851],[-122.222349562888,37.8277351385124],[-122.222338409233,37.8277765017669],[-122.222323796255,37.8278179380246],[-122.222302151366,37.8278546390959],[-122.222282236375,37.8278913149083],[-122.222264026925,37.8279293609171],[-122.222247631933,37.8279673579327],[-122.222232926307,37.828006027833],[-122.222219978947,37.8280446720634],[-122.222211794738,37.8280660780441],[-122.222205381508,37.8280867831234],[-122.222202402719,37.8281087881617],[-122.222201166552,37.8281300927132],[-122.22220167649,37.8281520693243],[-122.222203915831,37.8281739981879],[-122.222209627725,37.8281952013109],[-122.222217013351,37.8282164025019],[-122.222224438997,37.8282368830572],[-122.222233550557,37.8282566639529],[-122.222244392049,37.8282764195937],[-122.222255261906,37.8282961748195],[-122.222269531425,37.828314507817],[-122.222283784771,37.8283321434996],[-122.222299768575,37.8283497764195],[-122.222317449952,37.8283659894558],[-122.222474255032,37.8284825085639],[-122.222488361938,37.8284926083273],[-122.222502456149,37.8285033833221],[-122.222514864452,37.8285148579784],[-122.222525531171,37.8285270781126],[-122.222534499806,37.8285406956364],[-122.222541766348,37.8285543155098],[-122.222548992357,37.828568633524],[-122.222552830882,37.828583676046],[-122.222612040777,37.828747613167],[-122.222617648603,37.8287667701451],[-122.222624982363,37.828784506823],[-122.222634074947,37.8288022403205],[-122.222644836746,37.8288185543454],[-122.222659058431,37.8288348178489],[-122.222673248796,37.8288497317127],[-122.222689180761,37.828863900093],[-122.222706799172,37.8288773912993],[-122.222726127856,37.8288887873827],[-122.222745412002,37.8288994865641],[-122.223089484842,37.82902699612],[-122.223124431172,37.8290402341831],[-122.223159408848,37.8290548218736],[-122.223194418395,37.8290707816856],[-122.223227686364,37.8290874869767],[-122.223259283576,37.829105544257],[-122.223290884824,37.8291249965688],[-122.22332253064,37.8291451457706],[-122.223352433834,37.8291659954673],[-122.223387587111,37.8291881410614],[-122.22342451841,37.829212330818],[-122.223457960953,37.8292365490272],[-122.223491464262,37.8292621614381],[-122.223524998936,37.829289123477],[-122.223555045894,37.8293161589612],[-122.223585153099,37.829344566155],[-122.223611803405,37.8293743739412],[-122.223638483138,37.8294042262949],[-122.223656337077,37.829426624552],[-122.223748116186,37.8294280063065],[-122.22383593817,37.8294068092068],[-122.224104577999,37.8293424668519],[-122.224301020298,37.829226975407],[-122.22454563863,37.8296196305208],[-122.224442696821,37.8296616381102],[-122.224645369047,37.8298887093421],[-122.224931480256,37.8300548410864],[-122.224989395345,37.8300883317427],[-122.225133318343,37.8305449448383],[-122.225238198025,37.8305118189594],[-122.225466837639,37.8309623774446],[-122.225486841262,37.8310039828548],[-122.225757836525,37.8315617264402],[-122.225966268959,37.8317372050512],[-122.22610316412,37.8318924659348],[-122.226131559029,37.8319215725933],[-122.226151017208,37.8319384791239],[-122.226191569846,37.8319694555359],[-122.226235503018,37.8319969622301],[-122.226282784806,37.8320196270726],[-122.226308990331,37.8320302244116],[-122.226335192307,37.8320394491996],[-122.226361334012,37.8320473022667],[-122.226389218401,37.83205445478],[-122.226417042515,37.8320602355715],[-122.226460524879,37.8320671373205],[-122.226837377012,37.8324880723225],[-122.227018590047,37.8326103937176],[-122.22747068475,37.832914184602],[-122.22799390636,37.833371383026],[-122.228176289238,37.833322020878],[-122.229814510405,37.8328798436044],[-122.230945323938,37.8326599790703],[-122.23287359146,37.8321090955596],[-122.232868158238,37.8318763960783],[-122.233703697162,37.8315448003682],[-122.234105957681,37.8315677356075],[-122.234413845418,37.8316277444658],[-122.234652181308,37.831673699067],[-122.237125440099,37.8308098336209],[-122.237159975491,37.8308065799151],[-122.237165193794,37.8308065030791],[-122.237206629554,37.8308011001059],[-122.237246286887,37.8307936531541],[-122.237285883207,37.8307848119851],[-122.237325459962,37.8307739234409],[-122.23736325881,37.8307610134148],[-122.23741811627,37.8307375464089],[-122.237474764157,37.8307154256098],[-122.237531431571,37.8306953521454],[-122.237589849021,37.8306773230305],[-122.237650101592,37.8306613370093],[-122.237710357903,37.8306467235025],[-122.237770706278,37.8306348313081],[-122.237831030569,37.8306243345397],[-122.237893189471,37.8306158583654],[-122.237955368457,37.8306094520143],[-122.238489391027,37.8305651988922],[-122.238572313283,37.8305577889961],[-122.238656978049,37.8305496783124],[-122.238719185275,37.8305432711406],[-122.238726089363,37.8305424943412],[-122.238824484371,37.8305307159296],[-122.238909097332,37.8305191855759],[-122.238991923045,37.8305076590034],[-122.239078253378,37.8304967782634],[-122.239164619632,37.8304886421325],[-122.239251074216,37.8304818547353],[-122.23933927942,37.8304771341195],[-122.239425773727,37.8304744638117],[-122.239514091734,37.8304745567568],[-122.24072068786,37.8304608779235],[-122.240769159252,37.8304615353404],[-122.240817626823,37.8304608201922],[-122.240866062208,37.8304587328974],[-122.240914465405,37.8304552734562],[-122.240962848414,37.8304497441398],[-122.241011142509,37.8304428435139],[-122.241057719153,37.8304352931633],[-122.241105977739,37.8304256703208],[-122.241152501985,37.8304146779508],[-122.241197191505,37.8304016649887],[-122.242099033547,37.8301679027205],[-122.242546545433,37.8300521156474],[-122.242584330488,37.8300398791821],[-122.242623950802,37.8300296857502],[-122.242663546602,37.8300208652692],[-122.242704932931,37.8300133909281],[-122.242746367317,37.8300079635149],[-122.24278608811,37.8300032589525],[-122.242827574939,37.8300012734923],[-122.242869105973,37.8299999624147],[-122.242910686131,37.8300007432525],[-122.242952297985,37.830002873708],[-122.24299395844,37.8300070735851],[-122.243033920107,37.8300126261448],[-122.243075645551,37.8300195927392],[-122.243115660229,37.8300286097464],[-122.243190479484,37.8300446505486],[-122.24326708651,37.8300607098907],[-122.243307020923,37.8300663077646],[-122.243345192622,37.8300705365686],[-122.243385102925,37.8300726920159],[-122.243424908427,37.8300728013457],[-122.243476831241,37.8300706389368],[-122.243488896761,37.8300697855813],[-122.243548656711,37.82981069566],[-122.243636937105,37.8297379706266],[-122.243647249011,37.8297337229161],[-122.243800069984,37.8296778876919],[-122.243644850172,37.8295579527385],[-122.243684022123,37.8295298992354],[-122.243707931022,37.8295151222843],[-122.243731763459,37.8294982988054],[-122.243750482494,37.829483598553],[-122.243774044504,37.8294564732917],[-122.243812906472,37.8294140232487],[-122.243839988399,37.8293881960462],[-122.243863445869,37.8293542092976],[-122.243898045196,37.8292788572661],[-122.243912392376,37.8292278138855],[-122.24394897931,37.829088550173],[-122.243966605879,37.8290285701407],[-122.243982888852,37.8289850586982],[-122.244009386326,37.8289331606378],[-122.244056175184,37.8288610486091],[-122.244088201707,37.8288235148739],[-122.244105097193,37.8288060738106],[-122.244144926003,37.828659921578],[-122.244186076841,37.8284951858874],[-122.244223977514,37.8283394313978],[-122.244197866942,37.8283329319152],[-122.24442987771,37.8281859857471],[-122.245424583336,37.8275573820743],[-122.245470559963,37.8275244119026],[-122.245495988278,37.8275007014157],[-122.245538602376,37.8274719212795],[-122.245586393651,37.8274437395746],[-122.24563248335,37.8274155830275],[-122.2456803482,37.8273881202488],[-122.24740945211,37.8263310657247],[-122.247443674395,37.8263134125105],[-122.247459049423,37.8263049491416],[-122.247505477176,37.8262912104261],[-122.247552099279,37.8262857269416],[-122.247588470841,37.8262858632033],[-122.247644570504,37.8261696433624],[-122.247812983991,37.8258210719594],[-122.247834223455,37.8257665056433],[-122.24785368878,37.8257112905564],[-122.247871452047,37.8256560781817],[-122.247887457603,37.8256009143478],[-122.247899987004,37.8255451044618],[-122.247912528324,37.8254885968439],[-122.247979924039,37.8251895629856],[-122.247987571012,37.8251468764252],[-122.247995266713,37.8251062593],[-122.248006422092,37.8250655909103],[-122.248019367444,37.8250262460993],[-122.248035772465,37.8249868500221],[-122.248052166064,37.8249481741663],[-122.248072035218,37.8249101218586],[-122.248095407751,37.824872670183],[-122.248118813106,37.8248366131226],[-122.248145665648,37.824801180026],[-122.248174264955,37.8247664410925],[-122.248202908486,37.8247323765478],[-122.248208000511,37.8247281607712],[-122.248262284242,37.8246806652415],[-122.248309745529,37.8246373886103],[-122.248771971538,37.8241931264108],[-122.249337954759,37.8236703902895],[-122.249866611047,37.823181867579]]]},"properties":{"OBJECTID":7,"ID":2,"NAME":"OAKLAND","FULLNAME":"CITY OF OAKLAND","ACTION":"P","AGENCY":" ","RESPONSE":" ","MESSAGE":0,"GLOBALID":"bf6622f3-8529-4439-b885-df58276af701","Shape__Area":2218226318.5878906,"Shape__Length":414700.0600254591}}]}